NORAD_CAT_ID,OBJECT_NAME,OBJECT_TYPE,EPOCH,MEAN_MOTION,ECCENTRICITY,INCLINATION,RA_OF_ASC_NODE,ARG_OF_PERICENTER,MEAN_ANOMALY,BSTAR,MEAN_MOTION_DOT,MEAN_MOTION_DDOT,TLE_LINE0,TLE_LINE1,TLE_LINE2,SEMIMAJOR_AXIS,PERIOD,APOGEE,PERIGEE,DECAYED
53431.0,STARLINK-4548,PAYLOAD,2023-11-26 03:49:13,15.08874899,0.000156,53.2178,250.0894,104.1473,255.9693,0.00074396,0.00011583,0.0,0 STARLINK-4548,1 53431U 22097AV  23330.15918569  .00011583  00000-0  74396-3 0  9991,2 53431  53.2178 250.0894 0001560 104.1473 255.9693 15.08874899 72809,6917.774,95.435,540.718,538.56,0.0
53431.0,STARLINK-4548,PAYLOAD,2023-11-27 03:40:02,15.08826304,0.0001595,53.218,245.6276,106.1458,253.971,-0.00020374,-3.528e-05,0.0,0 STARLINK-4548,1 53431U 22097AV  23331.15280489 -.00003528  00000-0 -20374-3 0  9994,2 53431  53.2180 245.6276 0001595 106.1458 253.9710 15.08826304 72478,6917.922,95.438,540.891,538.684,0.0
53431.0,STARLINK-4548,PAYLOAD,2023-11-28 01:55:26,15.08863825,0.0001449,53.2183,241.4647,85.9172,274.1985,0.0013806,0.00021767,0.0,0 STARLINK-4548,1 53431U 22097AV  23332.08016396  .00021767  00000-0  13806-2 0  9995,2 53431  53.2183 241.4647 0001449  85.9172 274.1985 15.08863825 72616,6917.808,95.436,540.675,538.67,0.0
53431.0,STARLINK-4548,PAYLOAD,2023-11-28 17:49:17,15.08844299,0.0001449,53.2177,238.4913,114.2377,245.8766,0.00032912,4.954e-05,0.0,0 STARLINK-4548,1 53431U 22097AV  23332.74256850  .00004954  00000-0  32912-3 0  9998,2 53431  53.2177 238.4913 0001449 114.2377 245.8766 15.08844299 72711,6917.867,95.437,540.735,538.73,0.0
53431.0,STARLINK-4548,PAYLOAD,2023-11-28 22:35:27,15.08850823,0.0001412,53.2163,237.6015,98.1416,261.9736,0.00046625,7.142e-05,0.0,0 STARLINK-4548,1 53431U 22097AV  23332.94128609  .00007142  00000-0  46625-3 0  9998,2 53431  53.2163 237.6015 0001412  98.1416 261.9736 15.08850823 73227,6917.847,95.437,540.689,538.736,0.0
53431.0,STARLINK-4548,PAYLOAD,2023-11-29 00:10:50,15.08855146,0.0001479,53.2161,237.3035,92.5909,267.5253,0.00059779,9.243e-05,0.0,0 STARLINK-4548,1 53431U 22097AV  23333.00752557  .00009243  00000-0  59779-3 0  9999,2 53431  53.2161 237.3035 0001479  92.5909 267.5253 15.08855146 72758,6917.834,95.437,540.722,538.676,0.0
53431.0,STARLINK-4548,PAYLOAD,2023-11-30 03:12:23,15.08856122,0.0001408,53.216,232.2458,94.7899,265.3254,0.00083298,0.00013,0.0,0 STARLINK-4548,1 53431U 22097AV  23334.13360327  .00013000  00000-0  83298-3 0  9993,2 53431  53.2160 232.2458 0001408  94.7899 265.3254 15.08856122 72925,6917.831,95.437,540.67,538.722,0.0
53431.0,STARLINK-4548,PAYLOAD,2023-12-01 03:03:10,15.08833802,0.0001735,53.2157,227.78,129.1385,230.9762,0.00033103,4.983e-05,0.0,0 STARLINK-4548,1 53431U 22097AV  23335.12720712  .00004983  00000-0  33103-3 0  9991,2 53431  53.2157 227.7800 0001735 129.1385 230.9762 15.08833802 73076,6917.899,95.438,540.965,538.564,0.0
53431.0,STARLINK-4548,PAYLOAD,2023-12-01 22:07:47,15.08863726,0.0001664,53.2168,224.2164,122.715,237.4003,0.00092741,0.00014512,0.0,0 STARLINK-4548,1 53431U 22097AV  23335.92208076  .00014512  00000-0  92741-3 0  9995,2 53431  53.2168 224.2164 0001664 122.7150 237.4003 15.08863726 73677,6917.808,95.436,540.824,538.522,0.0
53431.0,STARLINK-4548,PAYLOAD,2023-12-01 23:43:10,15.08869024,0.000121,53.216,223.9195,113.1224,246.9895,0.0011167,0.00017543,0.0,0 STARLINK-4548,1 53431U 22097AV  23335.98831990  .00017543  00000-0  11167-2 0  9997,2 53431  53.2160 223.9195 0001210 113.1224 246.9895 15.08869024 73202,6917.792,95.436,540.494,538.82,0.0
53431.0,STARLINK-4548,PAYLOAD,2023-12-02 02:53:56,15.0888137,0.0001278,53.2159,223.3248,115.3198,244.7927,0.0014811,0.00023389,0.0,0 STARLINK-4548,1 53431U 22097AV  23336.12079646  .00023389  00000-0  14811-2 0  9990,2 53431  53.2159 223.3248 0001278 115.3198 244.7927 15.08881370 73706,6917.754,95.435,540.503,538.735,0.0
53431.0,STARLINK-4548,PAYLOAD,2023-12-02 20:23:12,15.08832926,0.0002218,53.2162,220.0518,135.7471,224.3698,-0.00023122,-3.966e-05,0.0,0 STARLINK-4548,1 53431U 22097AV  23336.84944513 -.00003966  00000-0 -23122-3 0  9990,2 53431  53.2162 220.0518 0002218 135.7471 224.3698 15.08832926 73330,6917.902,95.438,541.301,538.233,0.0
53431.0,STARLINK-4548,PAYLOAD,2023-12-02 21:58:35,15.08827997,0.0001435,53.216,219.7548,117.881,242.2328,-0.00028666,-4.846e-05,0.0,0 STARLINK-4548,1 53431U 22097AV  23336.91568798 -.00004846  00000-0 -28666-3 0  9991,2 53431  53.2160 219.7548 0001435 117.8810 242.2328 15.08827997 73829,6917.917,95.438,540.775,538.789,0.0
53431.0,STARLINK-4548,PAYLOAD,2023-12-03 01:09:22,15.08823815,0.0001116,53.2162,219.1606,87.7305,272.3815,-0.00029261,-4.94e-05,0.0,0 STARLINK-4548,1 53431U 22097AV  23337.04817159 -.00004940  00000-0 -29261-3 0  9991,2 53431  53.2162 219.1606 0001116  87.7305 272.3815 15.08823815 73369,6917.93,95.439,540.567,539.023,0.0
53431.0,STARLINK-4548,PAYLOAD,2023-12-04 01:00:10,15.0883003,0.0001176,53.2157,214.703,78.1897,281.9227,0.00018923,2.724e-05,0.0,0 STARLINK-4548,1 53431U 22097AV  23338.04178264  .00002724  00000-0  18923-3 0  9998,2 53431  53.2157 214.7030 0001176  78.1897 281.9227 15.08830030 73518,6917.911,95.438,540.589,538.962,0.0
53431.0,STARLINK-4548,PAYLOAD,2023-12-05 00:50:56,15.08858287,0.0001204,53.2158,210.2412,80.1199,279.9929,0.00067045,0.00010404,0.0,0 STARLINK-4548,1 53431U 22097AV  23339.03537580  .00010404  00000-0  67045-3 0  9991,2 53431  53.2158 210.2412 0001204  80.1199 279.9929 15.08858287 73660,6917.824,95.436,540.522,538.857,0.0
53431.0,STARLINK-4548,PAYLOAD,2023-12-06 00:41:42,15.08859778,0.000114,53.2152,205.7804,92.2717,267.8405,0.00035681,5.398e-05,0.0,0 STARLINK-4548,1 53431U 22097AV  23340.02896747  .00005398  00000-0  35681-3 0  9992,2 53431  53.2152 205.7804 0001140  92.2717 267.8405 15.08859778 73815,6917.82,95.436,540.474,538.896,0.0
53431.0,STARLINK-4548,PAYLOAD,2023-12-08 00:23:17,15.08844558,0.000228,53.2158,196.8639,69.5153,290.6083,0.00027635,4.113e-05,0.0,0 STARLINK-4548,1 53431U 22097AV  23342.01617583  .00004113  00000-0  27635-3 0  9996,2 53431  53.2158 196.8639 0002280  69.5153 290.6083 15.08844558 74114,6917.866,95.437,541.309,538.154,0.0
53431.0,STARLINK-4548,PAYLOAD,2023-12-09 14:32:32,15.08837405,9.36e-05,53.2157,189.7252,75.3532,284.7564,3.9521e-05,3.41e-06,0.0,0 STARLINK-4548,1 53431U 22097AV  23343.60593353  .00000341  00000-0  39521-4 0  9997,2 53431  53.2157 189.7252 0000936  75.3532 284.7564 15.08837405 74837,6917.888,95.438,540.401,539.106,0.0
53431.0,STARLINK-4548,PAYLOAD,2023-12-10 00:04:51,15.0883911,0.0001478,53.2178,187.9416,74.1941,285.9214,-1.132e-05,-4.68e-06,0.0,0 STARLINK-4548,1 53431U 22097AV  23344.00337373 -.00000468  00000-0 -11320-4 0  9999,2 53431  53.2178 187.9416 0001478  74.1941 285.9214 15.08839110 74891,6917.883,95.438,540.771,538.726,0.0
53431.0,STARLINK-4548,PAYLOAD,2023-12-10 19:09:29,15.08835568,0.000138,53.2165,184.3722,100.6143,259.5004,7.8497e-05,9.61e-06,0.0,0 STARLINK-4548,1 53431U 22097AV  23344.79825769  .00000961  00000-0  78497-4 0  9990,2 53431  53.2165 184.3722 0001380 100.6143 259.5004 15.08835568 74537,6917.894,95.438,540.714,538.804,0.0
53431.0,STARLINK-4548,PAYLOAD,2023-12-11 20:35:39,15.08839208,0.0001335,53.2164,179.6145,92.2848,267.8297,8.0651e-05,9.96e-06,0.0,0 STARLINK-4548,1 53431U 22097AV  23345.85809757  .00000996  00000-0  80651-4 0  9990,2 53431  53.2164 179.6145 0001335  92.2848 267.8297 15.08839208 75172,6917.883,95.438,540.671,538.824,0.0
53431.0,STARLINK-4548,PAYLOAD,2023-12-12 20:26:26,15.0884327,0.000136,53.2166,175.1543,93.3312,266.7835,9.5014e-05,1.225e-05,0.0,0 STARLINK-4548,1 53431U 22097AV  23346.85169559  .00001225  00000-0  95014-4 0  9995,2 53431  53.2166 175.1543 0001360  93.3312 266.7835 15.08843270 75320,6917.87,95.437,540.676,538.795,0.0
53431.0,STARLINK-4548,PAYLOAD,2023-12-13 18:41:50,15.08842377,0.0001441,53.2166,170.994,86.7176,273.3981,5.7389e-05,6.26e-06,0.0,0 STARLINK-4548,1 53431U 22097AV  23347.77905719  .00000626  00000-0  57389-4 0  9990,2 53431  53.2166 170.9940 0001441  86.7176 273.3981 15.08842377 74982,6917.873,95.437,540.735,538.741,0.0
53431.0,STARLINK-4548,PAYLOAD,2023-12-14 18:32:37,15.08844676,0.0001446,53.2168,166.5327,89.0082,271.1076,7.2072e-05,8.59e-06,0.0,0 STARLINK-4548,1 53431U 22097AV  23348.77265359  .00000859  00000-0  72072-4 0  9994,2 53431  53.2168 166.5327 0001446  89.0082 271.1076 15.08844676 75617,6917.866,95.437,540.731,538.731,0.0
53431.0,STARLINK-4548,PAYLOAD,2023-12-15 16:48:01,15.08837003,0.0001546,53.2181,162.365,107.886,252.23,-4.7417e-06,-3.63e-06,0.0,0 STARLINK-4548,1 53431U 22097AV  23349.70001953 -.00000363  00000-0 -47417-5 0  9994,2 53431  53.2181 162.3650 0001546 107.8860 252.2300 15.08837003 75277,6917.89,95.438,540.824,538.685,0.0
53431.0,STARLINK-4548,PAYLOAD,2023-12-16 16:38:48,15.08843708,0.0001414,53.2172,157.9074,110.9847,249.1297,3.9187e-05,3.36e-06,0.0,0 STARLINK-4548,1 53431U 22097AV  23350.69361592  .00000336  00000-0  39187-4 0  9994,2 53431  53.2172 157.9074 0001414 110.9847 249.1297 15.08843708 75900,6917.869,95.437,540.712,538.756,0.0
53431.0,STARLINK-4548,PAYLOAD,2023-12-17 14:54:12,15.08840046,0.0001184,53.2164,153.7432,89.3354,270.7774,0.00010137,1.326e-05,0.0,0 STARLINK-4548,1 53431U 22097AV  23351.62097843  .00001326  00000-0  10137-3 0  9996,2 53431  53.2164 153.7432 0001184  89.3354 270.7774 15.08840046 76047,6917.88,95.438,540.564,538.926,0.0
53431.0,STARLINK-4548,PAYLOAD,2023-12-17 18:04:58,15.08842514,0.0001212,53.2164,153.1478,92.4083,267.7048,0.00012021,1.626e-05,0.0,0 STARLINK-4548,1 53431U 22097AV  23351.75345644  .00001626  00000-0  12021-3 0  9992,2 53431  53.2164 153.1478 0001212  92.4083 267.7048 15.08842514 75587,6917.873,95.437,540.576,538.899,0.0
53431.0,STARLINK-4548,PAYLOAD,2023-12-18 14:44:59,15.08839393,0.0001262,53.2163,149.2814,97.5516,262.562,5.5637e-05,5.98e-06,0.0,0 STARLINK-4548,1 53431U 22097AV  23352.61458019  .00000598  00000-0  55637-4 0  9997,2 53431  53.2163 149.2814 0001262  97.5516 262.5620 15.08839393 76196,6917.882,95.438,540.62,538.874,0.0
